GSAT0218 (GALILEO 22)   
1 43058U 17079D   26063.74946031  .00000013  00000+0  00000+0 0  9997
2 43058  55.1048 224.3730 0001921 303.9467  55.9718  1.70474529 51236
GOES 17                 
1 43226U 18022A   26065.56388235 -.00000186  00000+0  00000+0 0  9993
2 43226   0.6735  87.5071 0002128 225.3094 324.9405  1.00270160 29393
GSAT0221 (GALILEO 25)   
1 43564U 18060A   26059.54670036 -.00000105  00000+0  00000+0 0  9995
2 43564  57.2051 344.7173 0005804 306.7848  53.1689  1.70475369 47315
GSAT0222 (GALILEO 26)   
1 43565U 18060B   26055.66007047 -.00000092  00000+0  00000+0 0  9996
2 43565  57.2093 344.8256 0004435 285.4820  74.4799  1.70474973 47292
GSAT0219 (GALILEO 23)   
1 43566U 18060C   26065.26653775 -.00000104  00000+0  00000+0 0  9993
2 43566  57.2056 344.5677 0004933 321.2111  38.7755  1.70475265 47437
GSAT0220 (GALILEO 24)   
1 43567U 18060D   26058.44840234 -.00000102  00000+0  00000+0 0  9992
2 43567  57.2075 344.7516 0005301 308.5821  51.3768  1.70475159 47302
BEIDOU-3 M13            
1 43622U 18072A   26063.82956810 -.00000029  00000+0  00000+0 0  9991
2 43622  56.5333  66.1018 0008916 307.8246  52.1164  1.86230808 50718
BEIDOU-3 M14            
1 43623U 18072B   26063.69502611 -.00000028  00000+0  00000+0 0  9992
2 43623  56.5350  66.1003 0006376 328.8150  31.1695  1.86230841 50709
NAVSTAR 77 (USA 289)    
1 43873U 18109A   26065.54477595 -.00000004  00000+0  00000+0 0  9992
2 43873  55.6164  96.2348 0037951 198.3878 333.9441  2.00556975 53010
METEOR-M2 2             
1 44387U 19038A   26065.89490677 -.00000158  00000+0 -48402-4 0  9993
2 44387  98.9084  51.7073 0001043   9.6559 350.4639 14.24331679346734
NAVSTAR 78 (USA 293)    
1 44506U 19056A   26065.18297285 -.00000100  00000+0  00000+0 0  9991
2 44506  55.6839 335.2387 0058046 198.0933 333.3685  2.00568454 48001
BEIDOU-3 M24            
1 44542U 19061A   26065.14698524  .00000012  00000+0  00000+0 0  9995
2 44542  54.3990 186.2022 0008583  21.0011 339.0071  1.86228818 43870
BEIDOU-3 M23            
1 44543U 19061B   26065.81391679  .00000016  00000+0  00000+0 0  9995
2 44543  54.3975 186.1481 0005058  13.8953 345.4949  1.86227427 43881
BEIDOU-3 M22            
1 44793U 19078A   26063.37544912 -.00000060  00000+0  00000+0 0  9999
2 44793  54.0307 303.5169 0007273  35.6258 324.4804  1.86231851 42694
BEIDOU-3 M21            
1 44794U 19078B   26062.97806659 -.00000058  00000+0  00000+0 0  9991
2 44794  54.0042 303.4937 0005911  39.9322 320.1697  1.86227541 42693
ELEKTRO-L 3             
1 44903U 19095A   26065.74003182 -.00000099  00000+0  00000+0 0  9995
2 44903   0.0441 316.7449 0001638  18.7176 171.3440  1.00270371 22682
NAVSTAR 79 (USA 304)    
1 45854U 20041A   26065.51925653 -.00000081  00000+0  00000+0 0  9996
2 45854  56.6073  32.9268 0061430 205.2409 151.1260  2.00560728 41978
